{
    "CCSDS_OMM_VERS": "3.0",
    "COMMENT": "GENERATED VIA SPACE-TRACK.ORG API",
    "CREATION_DATE": "2025-05-22T22:46:20",
    "ORIGINATOR": "18 SPCS",
    "OBJECT_NAME": "BD-17",
    "OBJECT_ID": "2015-019A",
    "CENTER_NAME": "EARTH",
    "REF_FRAME": "TEME",
    "TIME_SYSTEM": "UTC",
    "MEAN_ELEMENT_THEORY": "SGP4",
    "EPOCH": "2025-05-22T21:01:35.713920",
    "MEAN_MOTION": "1.00283240",
    "ECCENTRICITY": "0.00392040",
    "INCLINATION": "49.9368",
    "RA_OF_ASC_NODE": "300.1528",
    "ARG_OF_PERICENTER": "191.5351",
    "MEAN_ANOMALY": "158.9778",
    "EPHEMERIS_TYPE": "0",
    "CLASSIFICATION_TYPE": "U",
    "NORAD_CAT_ID": "40549",
    "ELEMENT_SET_NO": "999",
    "REV_AT_EPOCH": "3715",
    "BSTAR": "0.00000000000000",
    "MEAN_MOTION_DOT": "-0.00000187",
    "MEAN_MOTION_DDOT": "0.0000000000000",
    "SEMIMAJOR_AXIS": "42161.521",
    "PERIOD": "1435.933",
    "APOAPSIS": "35948.676",
    "PERIAPSIS": "35618.096",
    "OBJECT_TYPE": "PAYLOAD",
    "RCS_SIZE": "LARGE",
    "COUNTRY_CODE": "PRC",
    "LAUNCH_DATE": "2015-03-30",
    "SITE": "XSC",
    "DECAY_DATE": null,
    "FILE": "4736417",
    "GP_ID": "288163421",
    "TLE_LINE0": "0 BD-17",
    "TLE_LINE1": "1 40549U 15019A   25142.87610780 -.00000187  00000-0  00000+0 0  9995",
    "TLE_LINE2": "2 40549  49.9368 300.1528 0039204 191.5351 158.9778  1.00283240 37156"
}